start=new Date('2022-06-21T00:00:00.000Z').valueOf();
sats=[{"REV_AT_EPOCH":"130","MEAN_MOTION_DOT":"-0.00721885","OBJECT_NAME":"STARLINK-3660","MEAN_ANOMALY":"321.8509","ECCENTRICITY":"0.00012700","CLASSIFICATION_TYPE":"U","TIME_SYSTEM":"UTC","ARG_OF_PERICENTER":"70.7864","DECAY_DATE":null,"INCLINATION":"53.2174","RCS_SIZE":"LARGE","PERIOD":"94.893","ELEMENT_SET_NO":"999","TLE_LINE1":"1 51977U 22025X   22171.91667824 -.00721885  00000-0 -38191-1 0  9992","BSTAR":"-0.03819100000000","COUNTRY_CODE":"US","REF_FRAME":"TEME","EPOCH":"2022-06-20T22:00:00.999936","MEAN_ELEMENT_THEORY":"SGP4","NORAD_CAT_ID":"51977","RA_OF_ASC_NODE":"354.6078","MEAN_MOTION_DDOT":"0.0000000000000","LAUNCH_DATE":"2022-03-09","FILE":"3498404","MEAN_MOTION":"15.17500104","OBJECT_TYPE":"PAYLOAD","EPHEMERIS_TYPE":"0","PERIAPSIS":"512.526","SITE":"AFETR","TLE_LINE2":"2 51977  53.2174 354.6078 0001270  70.7864 321.8509 15.17500104  1304","CENTER_NAME":"EARTH","SEMIMAJOR_AXIS":"6891.536","GP_ID":"206516002","OBJECT_ID":"2022-025X","APOAPSIS":"514.276"},{"MEAN_MOTION":"15.08821813","FILE":"3498404","EPHEMERIS_TYPE":"0","OBJECT_TYPE":"PAYLOAD","SITE":"AFETR","TLE_LINE2":"2 51978  53.2136  14.3994 0001441  66.2449 104.9321 15.08821813  1304","CENTER_NAME":"EARTH","PERIAPSIS":"538.804","OBJECT_ID":"2022-025Y","SEMIMAJOR_AXIS":"6917.936","GP_ID":"206516364","APOAPSIS":"540.798","EPOCH":"2022-06-20T22:00:00.999936","MEAN_ELEMENT_THEORY":"SGP4","NORAD_CAT_ID":"51978","RA_OF_ASC_NODE":"14.3994","MEAN_MOTION_DDOT":"0.0000000000000","LAUNCH_DATE":"2022-03-09","ARG_OF_PERICENTER":"66.2449","TIME_SYSTEM":"UTC","DECAY_DATE":null,"RCS_SIZE":"LARGE","INCLINATION":"53.2136","ELEMENT_SET_NO":"999","PERIOD":"95.439","TLE_LINE1":"1 51978U 22025Y   22171.91667824  .00025787  00000-0  16332-2 0  9993","COUNTRY_CODE":"US","BSTAR":"0.00163320000000","REF_FRAME":"TEME","REV_AT_EPOCH":"130","OBJECT_NAME":"STARLINK-3666","MEAN_MOTION_DOT":"0.00025787","CLASSIFICATION_TYPE":"U","ECCENTRICITY":"0.00014410","MEAN_ANOMALY":"104.9321"},{"EPOCH":"2022-06-20T22:00:00.999936","MEAN_ELEMENT_THEORY":"SGP4","LAUNCH_DATE":"2022-03-09","NORAD_CAT_ID":"51979","RA_OF_ASC_NODE":"14.3942","MEAN_MOTION_DDOT":"0.0000000000000","EPHEMERIS_TYPE":"0","OBJECT_TYPE":"PAYLOAD","FILE":"3498404","MEAN_MOTION":"15.08849656","OBJECT_ID":"2022-025Z","GP_ID":"206516466","SEMIMAJOR_AXIS":"6917.851","APOAPSIS":"541.105","SITE":"AFETR","TLE_LINE2":"2 51979  53.2211  14.3942 0002008  43.8310  47.3162 15.08849656  1308","CENTER_NAME":"EARTH","PERIAPSIS":"538.327","REV_AT_EPOCH":"130","OBJECT_NAME":"STARLINK-3656","MEAN_MOTION_DOT":"-0.00007450","CLASSIFICATION_TYPE":"U","ECCENTRICITY":"0.00020080","MEAN_ANOMALY":"47.3162","RCS_SIZE":"LARGE","INCLINATION":"53.2211","ELEMENT_SET_NO":"999","PERIOD":"95.437","ARG_OF_PERICENTER":"43.8310","TIME_SYSTEM":"UTC","DECAY_DATE":null,"COUNTRY_CODE":"US","BSTAR":"-0.00045030000000","REF_FRAME":"TEME","TLE_LINE1":"1 51979U 22025Z   22171.91667824 -.00007450  00000-0 -45030-3 0  9991"},{"MEAN_ANOMALY":"142.2351","ECCENTRICITY":"0.00015340","CLASSIFICATION_TYPE":"U","MEAN_MOTION_DOT":"0.00025254","OBJECT_NAME":"STARLINK-3649","REV_AT_EPOCH":"130","REF_FRAME":"TEME","BSTAR":"0.00159960000000","COUNTRY_CODE":"US","TLE_LINE1":"1 51980U 22025AA  22171.91667824  .00025254  00000-0  15996-2 0  9990","PERIOD":"95.438","ELEMENT_SET_NO":"999","INCLINATION":"53.2149","RCS_SIZE":"LARGE","DECAY_DATE":null,"TIME_SYSTEM":"UTC","ARG_OF_PERICENTER":"68.9392","LAUNCH_DATE":"2022-03-09","MEAN_MOTION_DDOT":"0.0000000000000","NORAD_CAT_ID":"51980","RA_OF_ASC_NODE":"14.3982","EPOCH":"2022-06-20T22:00:00.999936","MEAN_ELEMENT_THEORY":"SGP4","APOAPSIS":"540.840","SEMIMAJOR_AXIS":"6917.914","GP_ID":"206515758","OBJECT_ID":"2022-025AA","PERIAPSIS":"538.717","SITE":"AFETR","TLE_LINE2":"2 51980  53.2149  14.3982 0001534  68.9392 142.2351 15.08829105  1307","CENTER_NAME":"EARTH","OBJECT_TYPE":"PAYLOAD","EPHEMERIS_TYPE":"0","MEAN_MOTION":"15.08829105","FILE":"3498404"},{"EPOCH":"2022-06-20T22:00:00.999936","MEAN_ELEMENT_THEORY":"SGP4","LAUNCH_DATE":"2022-03-09","NORAD_CAT_ID":"51981","RA_OF_ASC_NODE":"14.4386","MEAN_MOTION_DDOT":"0.0000000000000","EPHEMERIS_TYPE":"0","OBJECT_TYPE":"PAYLOAD","MEAN_MOTION":"15.08821462","FILE":"3498404","OBJECT_ID":"2022-025AB","SEMIMAJOR_AXIS":"6917.937","GP_ID":"206516349","APOAPSIS":"541.048","TLE_LINE2":"2 51981  53.2131  14.4386 0001801  49.9791  81.2148 15.08821462  1301","SITE":"AFETR","CENTER_NAME":"EARTH","PERIAPSIS":"538.556","REV_AT_EPOCH":"130","OBJECT_NAME":"STARLINK-3635","MEAN_MOTION_DOT":"0.00024327","CLASSIFICATION_TYPE":"U","ECCENTRICITY":"0.00018010","MEAN_ANOMALY":"81.2148","RCS_SIZE":"LARGE","INCLINATION":"53.2131","ELEMENT_SET_NO":"999","PERIOD":"95.439","ARG_OF_PERICENTER":"49.9791","TIME_SYSTEM":"UTC","DECAY_DATE":null,"COUNTRY_CODE":"US","BSTAR":"0.00154210000000","REF_FRAME":"TEME","TLE_LINE1":"1 51981U 22025AB  22171.91667824  .00024327  00000-0  15421-2 0  9994"},{"LAUNCH_DATE":"2022-03-09","MEAN_MOTION_DDOT":"0.0000000000000","NORAD_CAT_ID":"51982","RA_OF_ASC_NODE":"14.3968","EPOCH":"2022-06-20T22:00:00.999936","MEAN_ELEMENT_THEORY":"SGP4","APOAPSIS":"540.951","GP_ID":"206516018","SEMIMAJOR_AXIS":"6917.930","OBJECT_ID":"2022-025AC","PERIAPSIS":"538.639","TLE_LINE2":"2 51982  53.2148  14.3968 0001671  60.3900 170.7699 15.08823779  1307","CENTER_NAME":"EARTH","SITE":"AFETR","OBJECT_TYPE":"PAYLOAD","EPHEMERIS_TYPE":"0","MEAN_MOTION":"15.08823779","FILE":"3498404","ECCENTRICITY":"0.00016710","MEAN_ANOMALY":"170.7699","CLASSIFICATION_TYPE":"U","MEAN_MOTION_DOT":"0.00025396","OBJECT_NAME":"STARLINK-3650","REV_AT_EPOCH":"130","REF_FRAME":"TEME","BSTAR":"0.00160870000000","COUNTRY_CODE":"US","TLE_LINE1":"1 51982U 22025AC  22171.91667824  .00025396  00000-0  16087-2 0  9991","PERIOD":"95.439","ELEMENT_SET_NO":"999","INCLINATION":"53.2148","RCS_SIZE":"LARGE","DECAY_DATE":null,"TIME_SYSTEM":"UTC","ARG_OF_PERICENTER":"60.3900"},{"RA_OF_ASC_NODE":"14.4290","NORAD_CAT_ID":"51983","MEAN_MOTION_DDOT":"0.0000000000000","LAUNCH_DATE":"2022-03-09","MEAN_ELEMENT_THEORY":"SGP4","EPOCH":"2022-06-20T22:00:00.999936","CENTER_NAME":"EARTH","TLE_LINE2":"2 51983  53.2124  14.4290 0001631  56.8651  94.3135 15.08839442  1300","SITE":"AFETR","PERIAPSIS":"538.619","OBJECT_ID":"2022-025AD","SEMIMAJOR_AXIS":"6917.882","GP_ID":"206516120","APOAPSIS":"540.875","FILE":"3498404","MEAN_MOTION":"15.08839442","EPHEMERIS_TYPE":"0","OBJECT_TYPE":"PAYLOAD","CLASSIFICATION_TYPE":"U","MEAN_ANOMALY":"94.3135","ECCENTRICITY":"0.00016310","REV_AT_EPOCH":"130","OBJECT_NAME":"STARLINK-3655","MEAN_MOTION_DOT":"-0.00022190","TLE_LINE1":"1 51983U 22025AD  22171.91667824 -.00022190  00000-0 -13804-2 0  9997","COUNTRY_CODE":"US","BSTAR":"-0.00138040000000","REF_FRAME":"TEME","ARG_OF_PERICENTER":"56.8651","TIME_SYSTEM":"UTC","DECAY_DATE":null,"RCS_SIZE":"LARGE","INCLINATION":"53.2124","ELEMENT_SET_NO":"999","PERIOD":"95.438"},{"APOAPSIS":"541.007","OBJECT_ID":"2022-025AE","SEMIMAJOR_AXIS":"6917.880","GP_ID":"206515258","TLE_LINE2":"2 51984  53.2191  14.3876 0001825  49.6499 301.5188 15.08840257  1306","CENTER_NAME":"EARTH","SITE":"AFETR","PERIAPSIS":"538.482","EPHEMERIS_TYPE":"0","OBJECT_TYPE":"PAYLOAD","MEAN_MOTION":"15.08840257","FILE":"3498404","LAUNCH_DATE":"2022-03-09","MEAN_MOTION_DDOT":"0.0000000000000","NORAD_CAT_ID":"51984","RA_OF_ASC_NODE":"14.3876","EPOCH":"2022-06-20T22:00:00.999936","MEAN_ELEMENT_THEORY":"SGP4","REF_FRAME":"TEME","COUNTRY_CODE":"US","BSTAR":"0.00107150000000","TLE_LINE1":"1 51984U 22025AE  22171.91667824  .00016806  00000-0  10715-2 0  9991","ELEMENT_SET_NO":"999","PERIOD":"95.438","RCS_SIZE":"LARGE","INCLINATION":"53.2191","DECAY_DATE":null,"ARG_OF_PERICENTER":"49.6499","TIME_SYSTEM":"UTC","CLASSIFICATION_TYPE":"U","ECCENTRICITY":"0.00018250","MEAN_ANOMALY":"301.5188","OBJECT_NAME":"STARLINK-3664","MEAN_MOTION_DOT":"0.00016806","REV_AT_EPOCH":"130"},{"EPOCH":"2022-06-20T22:00:00.999936","MEAN_ELEMENT_THEORY":"SGP4","MEAN_MOTION_DDOT":"0.0000000000000","NORAD_CAT_ID":"51985","RA_OF_ASC_NODE":"14.4025","LAUNCH_DATE":"2022-03-09","FILE":"3498404","MEAN_MOTION":"15.08821416","OBJECT_TYPE":"PAYLOAD","EPHEMERIS_TYPE":"0","PERIAPSIS":"538.734","SITE":"AFETR","TLE_LINE2":"2 51985  53.2148  14.4025 0001544  64.1906 126.9808 15.08821416  1303","CENTER_NAME":"EARTH","APOAPSIS":"540.870","SEMIMAJOR_AXIS":"6917.937","GP_ID":"206516003","OBJECT_ID":"2022-025AF","MEAN_MOTION_DOT":"0.00026619","OBJECT_NAME":"STARLINK-3651","REV_AT_EPOCH":"130","ECCENTRICITY":"0.00015440","MEAN_ANOMALY":"126.9808","CLASSIFICATION_TYPE":"U","DECAY_DATE":null,"TIME_SYSTEM":"UTC","ARG_OF_PERICENTER":"64.1906","PERIOD":"95.439","ELEMENT_SET_NO":"999","INCLINATION":"53.2148","RCS_SIZE":"LARGE","TLE_LINE1":"1 51985U 22025AF  22171.91667824  .00026619  00000-0  16851-2 0  9992","REF_FRAME":"TEME","BSTAR":"0.00168510000000","COUNTRY_CODE":"US"},{"DECAY_DATE":null,"TIME_SYSTEM":"UTC","ARG_OF_PERICENTER":"61.8954","PERIOD":"95.438","ELEMENT_SET_NO":"999","INCLINATION":"53.2196","RCS_SIZE":"LARGE","TLE_LINE1":"1 51986U 22025AG  22171.91667824 -.00020890  00000-0 -12983-2 0  9992","REF_FRAME":"TEME","BSTAR":"-0.00129830000000","COUNTRY_CODE":"US","MEAN_MOTION_DOT":"-0.00020890","OBJECT_NAME":"STARLINK-3645","REV_AT_EPOCH":"130","MEAN_ANOMALY":"329.2742","ECCENTRICITY":"0.00014900","CLASSIFICATION_TYPE":"U","FILE":"3498404","MEAN_MOTION":"15.08838258","OBJECT_TYPE":"PAYLOAD","EPHEMERIS_TYPE":"0","PERIAPSIS":"538.720","CENTER_NAME":"EARTH","TLE_LINE2":"2 51986  53.2196  14.3900 0001490  61.8954 329.2742 15.08838258  1302","SITE":"AFETR","APOAPSIS":"540.781","GP_ID":"206516365","SEMIMAJOR_AXIS":"6917.886","OBJECT_ID":"2022-025AG","MEAN_ELEMENT_THEORY":"SGP4","EPOCH":"2022-06-20T22:00:00.999936","MEAN_MOTION_DDOT":"0.0000000000000","NORAD_CAT_ID":"51986","RA_OF_ASC_NODE":"14.3900","LAUNCH_DATE":"2022-03-09"}];
